[{"OBJECT_NAME":"STARLINK-11626 [DTC]","OBJECT_ID":"2025-075J","EPOCH":"2026-01-05T03:59:11.990400","MEAN_MOTION":15.71018108,"ECCENTRICITY":0.00077325,"INCLINATION":43.0025,"RA_OF_ASC_NODE":177.0917,"ARG_OF_PERICENTER":264.1155,"MEAN_ANOMALY":95.8831,"EPHEMERIS_TYPE":0,"CLASSIFICATION_TYPE":"U","NORAD_CAT_ID":63556,"ELEMENT_SET_NO":999,"REV_AT_EPOCH":4325,"BSTAR":0.0016928167,"MEAN_MOTION_DOT":0.00224688,"MEAN_MOTION_DDOT":0},{"OBJECT_NAME":"STARLINK-11668 [DTC]","OBJECT_ID":"2025-075K","EPOCH":"2026-01-05T03:51:33.916608","MEAN_MOTION":15.71015313,"ECCENTRICITY":0.00058031,"INCLINATION":43.0016,"RA_OF_ASC_NODE":177.0485,"ARG_OF_PERICENTER":262.5052,"MEAN_ANOMALY":97.5157,"EPHEMERIS_TYPE":0,"CLASSIFICATION_TYPE":"U","NORAD_CAT_ID":63557,"ELEMENT_SET_NO":999,"REV_AT_EPOCH":4325,"BSTAR":0.0016663571,"MEAN_MOTION_DOT":0.00220902,"MEAN_MOTION_DDOT":0},{"OBJECT_NAME":"STARLINK-11657 [DTC]","OBJECT_ID":"2025-075L","EPOCH":"2026-01-04T18:19:17.330592","MEAN_MOTION":15.70966433,"ECCENTRICITY":0.00026018,"INCLINATION":42.999,"RA_OF_ASC_NODE":179.2177,"ARG_OF_PERICENTER":272.4214,"MEAN_ANOMALY":87.6356,"EPHEMERIS_TYPE":0,"CLASSIFICATION_TYPE":"U","NORAD_CAT_ID":63558,"ELEMENT_SET_NO":999,"REV_AT_EPOCH":4319,"BSTAR":0.0020658436,"MEAN_MOTION_DOT":0.00275053,"MEAN_MOTION_DDOT":0},{"OBJECT_NAME":"STARLINK-11606 [DTC]","OBJECT_ID":"2025-075M","EPOCH":"2026-01-05T04:14:20.194368","MEAN_MOTION":15.70897591,"ECCENTRICITY":0.00021154,"INCLINATION":43.0001,"RA_OF_ASC_NODE":176.2787,"ARG_OF_PERICENTER":295.3714,"MEAN_ANOMALY":64.6935,"EPHEMERIS_TYPE":0,"CLASSIFICATION_TYPE":"U","NORAD_CAT_ID":63559,"ELEMENT_SET_NO":999,"REV_AT_EPOCH":4326,"BSTAR":0.0016512283,"MEAN_MOTION_DOT":0.00217595,"MEAN_MOTION_DDOT":0},{"OBJECT_NAME":"STARLINK-11592 [DTC]","OBJECT_ID":"2025-075N","EPOCH":"2026-01-04T17:56:21.097824","MEAN_MOTION":15.70894786,"ECCENTRICITY":0.00015743,"INCLINATION":42.9997,"RA_OF_ASC_NODE":179.0891,"ARG_OF_PERICENTER":277.9545,"MEAN_ANOMALY":82.1144,"EPHEMERIS_TYPE":0,"CLASSIFICATION_TYPE":"U","NORAD_CAT_ID":63560,"ELEMENT_SET_NO":999,"REV_AT_EPOCH":4319,"BSTAR":0.0017581659,"MEAN_MOTION_DOT":0.00232094,"MEAN_MOTION_DDOT":0},{"OBJECT_NAME":"STARLINK-32953","OBJECT_ID":"2025-075P","EPOCH":"2026-01-05T02:56:51.713664","MEAN_MOTION":15.27614616,"ECCENTRICITY":0.00016413,"INCLINATION":43.0022,"RA_OF_ASC_NODE":269.8039,"ARG_OF_PERICENTER":255.6216,"MEAN_ANOMALY":104.4453,"EPHEMERIS_TYPE":0,"CLASSIFICATION_TYPE":"U","NORAD_CAT_ID":63561,"ELEMENT_SET_NO":999,"REV_AT_EPOCH":4220,"BSTAR":0.0010133585,"MEAN_MOTION_DOT":0.00027758,"MEAN_MOTION_DDOT":0},{"OBJECT_NAME":"STARLINK-32951","OBJECT_ID":"2025-075Q","EPOCH":"2026-01-05T02:51:16.306272","MEAN_MOTION":15.27588225,"ECCENTRICITY":0.000629,"INCLINATION":43.0039,"RA_OF_ASC_NODE":269.7425,"ARG_OF_PERICENTER":241.7115,"MEAN_ANOMALY":118.3102,"EPHEMERIS_TYPE":0,"CLASSIFICATION_TYPE":"U","NORAD_CAT_ID":63562,"ELEMENT_SET_NO":999,"REV_AT_EPOCH":4221,"BSTAR":0.0014283709,"MEAN_MOTION_DOT":0.00039281,"MEAN_MOTION_DDOT":0},{"OBJECT_NAME":"STARLINK-32958","OBJECT_ID":"2025-075R","EPOCH":"2026-01-05T02:36:30.012480","MEAN_MOTION":15.27581898,"ECCENTRICITY":0.00017804,"INCLINATION":42.9973,"RA_OF_ASC_NODE":269.6959,"ARG_OF_PERICENTER":252.036,"MEAN_ANOMALY":108.0298,"EPHEMERIS_TYPE":0,"CLASSIFICATION_TYPE":"U","NORAD_CAT_ID":63563,"ELEMENT_SET_NO":999,"REV_AT_EPOCH":4220,"BSTAR":0.001005809,"MEAN_MOTION_DOT":0.00027521,"MEAN_MOTION_DDOT":0},{"OBJECT_NAME":"STARLINK-32928","OBJECT_ID":"2025-075S","EPOCH":"2026-01-05T03:46:36.378336","MEAN_MOTION":15.27572433,"ECCENTRICITY":0.00013488,"INCLINATION":42.9977,"RA_OF_ASC_NODE":269.1997,"ARG_OF_PERICENTER":270.3148,"MEAN_ANOMALY":89.7549,"EPHEMERIS_TYPE":0,"CLASSIFICATION_TYPE":"U","NORAD_CAT_ID":63564,"ELEMENT_SET_NO":999,"REV_AT_EPOCH":4222,"BSTAR":0.00099250493,"MEAN_MOTION_DOT":0.00027144,"MEAN_MOTION_DDOT":0},{"OBJECT_NAME":"STARLINK-32687","OBJECT_ID":"2025-075T","EPOCH":"2026-01-05T02:49:26.513472","MEAN_MOTION":15.27595667,"ECCENTRICITY":0.00015306,"INCLINATION":43.0028,"RA_OF_ASC_NODE":269.7365,"ARG_OF_PERICENTER":259.0998,"MEAN_ANOMALY":100.9681,"EPHEMERIS_TYPE":0,"CLASSIFICATION_TYPE":"U","NORAD_CAT_ID":63565,"ELEMENT_SET_NO":999,"REV_AT_EPOCH":4221,"BSTAR":0.0015303822,"MEAN_MOTION_DOT":0.00042112,"MEAN_MOTION_DDOT":0},{"OBJECT_NAME":"STARLINK-32950","OBJECT_ID":"2025-075U","EPOCH":"2026-01-05T03:39:10.777248","MEAN_MOTION":15.27576076,"ECCENTRICITY":0.00025393,"INCLINATION":42.9953,"RA_OF_ASC_NODE":269.095,"ARG_OF_PERICENTER":245.1242,"MEAN_ANOMALY":114.9346,"EPHEMERIS_TYPE":0,"CLASSIFICATION_TYPE":"U","NORAD_CAT_ID":63566,"ELEMENT_SET_NO":999,"REV_AT_EPOCH":4221,"BSTAR":0.00098747842,"MEAN_MOTION_DOT":0.00027009,"MEAN_MOTION_DDOT":0},{"OBJECT_NAME":"STARLINK-32954","OBJECT_ID":"2025-075V","EPOCH":"2026-01-05T02:23:32.886816","MEAN_MOTION":15.27587337,"ECCENTRICITY":0.00012963,"INCLINATION":43.0003,"RA_OF_ASC_NODE":269.5973,"ARG_OF_PERICENTER":281.3029,"MEAN_ANOMALY":78.7677,"EPHEMERIS_TYPE":0,"CLASSIFICATION_TYPE":"U","NORAD_CAT_ID":63567,"ELEMENT_SET_NO":999,"REV_AT_EPOCH":4220,"BSTAR":0.001235528,"MEAN_MOTION_DOT":0.00033901,"MEAN_MOTION_DDOT":0},{"OBJECT_NAME":"STARLINK-32940","OBJECT_ID":"2025-075W","EPOCH":"2026-01-05T02:30:56.706336","MEAN_MOTION":15.27575097,"ECCENTRICITY":0.00010654,"INCLINATION":43.0011,"RA_OF_ASC_NODE":269.6372,"ARG_OF_PERICENTER":261.2771,"MEAN_ANOMALY":98.796,"EPHEMERIS_TYPE":0,"CLASSIFICATION_TYPE":"U","NORAD_CAT_ID":63568,"ELEMENT_SET_NO":999,"REV_AT_EPOCH":4220,"BSTAR":0.00088747462,"MEAN_MOTION_DOT":0.00024236,"MEAN_MOTION_DDOT":0},{"OBJECT_NAME":"STARLINK-32959","OBJECT_ID":"2025-076A","EPOCH":"2026-01-05T06:06:32.109120","MEAN_MOTION":15.27587644,"ECCENTRICITY":0.00014326,"INCLINATION":43.0035,"RA_OF_ASC_NODE":323.9233,"ARG_OF_PERICENTER":280.3774,"MEAN_ANOMALY":79.6916,"EPHEMERIS_TYPE":0,"CLASSIFICATION_TYPE":"U","NORAD_CAT_ID":63569,"ELEMENT_SET_NO":999,"REV_AT_EPOCH":4208,"BSTAR":0.0018914334,"MEAN_MOTION_DOT":0.00052167,"MEAN_MOTION_DDOT":0},{"OBJECT_NAME":"STARLINK-32956","OBJECT_ID":"2025-076B","EPOCH":"2026-01-05T06:17:25.999872","MEAN_MOTION":15.27567722,"ECCENTRICITY":0.00011594,"INCLINATION":43.0016,"RA_OF_ASC_NODE":323.1169,"ARG_OF_PERICENTER":290.651,"MEAN_ANOMALY":69.4218,"EPHEMERIS_TYPE":0,"CLASSIFICATION_TYPE":"U","NORAD_CAT_ID":63570,"ELEMENT_SET_NO":999,"REV_AT_EPOCH":4208,"BSTAR":0.0011975792,"MEAN_MOTION_DOT":0.00032827,"MEAN_MOTION_DDOT":0},{"OBJECT_NAME":"STARLINK-33722","OBJECT_ID":"2025-076C","EPOCH":"2026-01-05T06:38:27.270528","MEAN_MOTION":15.27607926,"ECCENTRICITY":0.00014526,"INCLINATION":43.0002,"RA_OF_ASC_NODE":319.7033,"ARG_OF_PERICENTER":280.3447,"MEAN_ANOMALY":79.724,"EPHEMERIS_TYPE":0,"CLASSIFICATION_TYPE":"U","NORAD_CAT_ID":63571,"ELEMENT_SET_NO":999,"REV_AT_EPOCH":4212,"BSTAR":0.0021228822,"MEAN_MOTION_DOT":0.00058671,"MEAN_MOTION_DDOT":0},{"OBJECT_NAME":"STARLINK-33739","OBJECT_ID":"2025-076D","EPOCH":"2026-01-05T04:20:05.464320","MEAN_MOTION":15.27607931,"ECCENTRICITY":9.817e-5,"INCLINATION":43.0065,"RA_OF_ASC_NODE":320.7011,"ARG_OF_PERICENTER":309.8349,"MEAN_ANOMALY":50.2417,"EPHEMERIS_TYPE":0,"CLASSIFICATION_TYPE":"U","NORAD_CAT_ID":63572,"ELEMENT_SET_NO":999,"REV_AT_EPOCH":4211,"BSTAR":0.0010730071,"MEAN_MOTION_DOT":0.00029407,"MEAN_MOTION_DDOT":0},{"OBJECT_NAME":"STARLINK-33683","OBJECT_ID":"2025-076E","EPOCH":"2026-01-05T04:18:15.524640","MEAN_MOTION":15.27557686,"ECCENTRICITY":0.00010353,"INCLINATION":43.0033,"RA_OF_ASC_NODE":320.6908,"ARG_OF_PERICENTER":289.6859,"MEAN_ANOMALY":70.3881,"EPHEMERIS_TYPE":0,"CLASSIFICATION_TYPE":"U","NORAD_CAT_ID":63573,"ELEMENT_SET_NO":999,"REV_AT_EPOCH":4211,"BSTAR":0.0013938065,"MEAN_MOTION_DOT":0.00038265,"MEAN_MOTION_DDOT":0},{"OBJECT_NAME":"STARLINK-33732","OBJECT_ID":"2025-076G","EPOCH":"2026-01-05T05:33:54.692928","MEAN_MOTION":15.27559376,"ECCENTRICITY":0.00014038,"INCLINATION":43.0005,"RA_OF_ASC_NODE":320.2251,"ARG_OF_PERICENTER":284.5544,"MEAN_ANOMALY":75.5152,"EPHEMERIS_TYPE":0,"CLASSIFICATION_TYPE":"U","NORAD_CAT_ID":63575,"ELEMENT_SET_NO":999,"REV_AT_EPOCH":4212,"BSTAR":0.0013352639,"MEAN_MOTION_DOT":0.00036641,"MEAN_MOTION_DDOT":0},{"OBJECT_NAME":"STARLINK-33800","OBJECT_ID":"2025-076H","EPOCH":"2026-01-05T04:56:53.211552","MEAN_MOTION":15.27611453,"ECCENTRICITY":0.00025167,"INCLINATION":43.0031,"RA_OF_ASC_NODE":320.0287,"ARG_OF_PERICENTER":257.1854,"MEAN_ANOMALY":102.8717,"EPHEMERIS_TYPE":0,"CLASSIFICATION_TYPE":"U","NORAD_CAT_ID":63576,"ELEMENT_SET_NO":999,"REV_AT_EPOCH":4212,"BSTAR":0.001906938,"MEAN_MOTION_DOT":0.00052641,"MEAN_MOTION_DDOT":0},{"OBJECT_NAME":"STARLINK-33632","OBJECT_ID":"2025-076J","EPOCH":"2026-01-05T05:48:42.820992","MEAN_MOTION":15.27565982,"ECCENTRICITY":0.00012901,"INCLINATION":43.0024,"RA_OF_ASC_NODE":320.2996,"ARG_OF_PERICENTER":289.7661,"MEAN_ANOMALY":70.3052,"EPHEMERIS_TYPE":0,"CLASSIFICATION_TYPE":"U","NORAD_CAT_ID":63577,"ELEMENT_SET_NO":999,"REV_AT_EPOCH":4212,"BSTAR":0.0012064788,"MEAN_MOTION_DOT":0.00033072,"MEAN_MOTION_DDOT":0},{"OBJECT_NAME":"STARLINK-33719","OBJECT_ID":"2025-076K","EPOCH":"2026-01-05T05:09:49.788576","MEAN_MOTION":15.27631231,"ECCENTRICITY":0.00017658,"INCLINATION":43.0005,"RA_OF_ASC_NODE":320.0999,"ARG_OF_PERICENTER":290.161,"MEAN_ANOMALY":69.9052,"EPHEMERIS_TYPE":0,"CLASSIFICATION_TYPE":"U","NORAD_CAT_ID":63578,"ELEMENT_SET_NO":999,"REV_AT_EPOCH":4212,"BSTAR":0.0011881788,"MEAN_MOTION_DOT":0.0003263,"MEAN_MOTION_DDOT":0},{"OBJECT_NAME":"STARLINK-33755","OBJECT_ID":"2025-076L","EPOCH":"2026-01-05T06:45:50.843808","MEAN_MOTION":15.27578795,"ECCENTRICITY":0.00013885,"INCLINATION":43.0009,"RA_OF_ASC_NODE":319.6559,"ARG_OF_PERICENTER":240.038,"MEAN_ANOMALY":120.0334,"EPHEMERIS_TYPE":0,"CLASSIFICATION_TYPE":"U","NORAD_CAT_ID":63579,"ELEMENT_SET_NO":999,"REV_AT_EPOCH":4213,"BSTAR":0.001950103,"MEAN_MOTION_DOT":0.00053791,"MEAN_MOTION_DDOT":0}]
